BREEZE-M DEB            
1 38884U 12044R   17345.46114176  .00005575  22806-5  17521-3 0  9996
2 38884  50.0126 353.4295 2334335 193.8850 158.5171 10.75944912197417
